{
"type": "FeatureCollection",
"name": "0",
"crs": { "type": "name", "properties": { "name": "urn:ogc:def:crs:OGC:1.3:CRS84" } },
"features": [
{ "type": "Feature", "properties": { "fid": 56, "Line": 0.0, "auxiliary_storage_labeling_show": null }, "geometry": { "type": "MultiLineString", "coordinates": [ [ [ 21.610205289486483, 47.54092915916263 ], [ 21.610182154004548, 47.541136068014602 ], [ 21.610209730313773, 47.541243680110135 ], [ 21.610261099135347, 47.541342244937077 ], [ 21.610334261356289, 47.541428967142338 ], [ 21.610462517195131, 47.541537183859468 ], [ 21.610625783137991, 47.541637050632609 ], [ 21.610795917107183, 47.541686281085042 ], [ 21.610966997456153, 47.541716558923987 ], [ 21.611133316214854, 47.54172548671086 ], [ 21.611503404760601, 47.541708433379462 ], [ 21.612878360609471, 47.541619201546617 ], [ 21.614466313703282, 47.54152143121653 ], [ 21.616595865474903, 47.541388239123975 ], [ 21.61711821034886, 47.541359260268536 ], [ 21.617287061705692, 47.541362758922425 ], [ 21.61763836381693, 47.541381127107222 ], [ 21.618819344485686, 47.541433395084169 ], [ 21.620371217549593, 47.541494739748217 ], [ 21.621542168041334, 47.541541839616066 ], [ 21.622237280088008, 47.541558522697969 ], [ 21.622536161372768, 47.541572050172498 ], [ 21.623174169441558, 47.541602622271192 ], [ 21.623920381856333, 47.541635193491615 ], [ 21.624612403589815, 47.541666683933279 ] ], [ [ 21.611806717790657, 47.553697024746953 ], [ 21.612411050472097, 47.554329393643691 ], [ 21.613682864234107, 47.555671583104676 ], [ 21.614021569523342, 47.555992903243109 ], [ 21.614309874819256, 47.55618142297817 ], [ 21.614714741689657, 47.556416454757773 ], [ 21.615078934217138, 47.556628581570571 ], [ 21.615743465182131, 47.557005148069486 ], [ 21.616644019077579, 47.557534188145851 ], [ 21.616989835946182, 47.557774989959192 ], [ 21.617848171587273, 47.558429952262607 ], [ 21.61894551767011, 47.559298322714525 ], [ 21.619684715156748, 47.559875572858829 ], [ 21.620263383967274, 47.560315778846508 ], [ 21.620455661364236, 47.560449879214389 ], [ 21.62070044779141, 47.560601409339178 ], [ 21.620908076426101, 47.560712102968644 ], [ 21.621148717421779, 47.560823548580963 ], [ 21.621474070902146, 47.560959145720112 ], [ 21.621831533777847, 47.561076914257868 ], [ 21.622116593946476, 47.561152399808783 ], [ 21.622363419439644, 47.561210137118543 ], [ 21.622781626283171, 47.561288604500604 ], [ 21.623095261945615, 47.561318810492871 ], [ 21.623455677068883, 47.561339044268152 ], [ 21.623754907326507, 47.561344273776548 ] ], [ [ 21.619974156381385, 47.521967716205062 ], [ 21.619372466573708, 47.522842687705122 ], [ 21.619310938290546, 47.522977980222905 ], [ 21.61929591061438, 47.523143484780455 ], [ 21.619333332410378, 47.52341644560957 ], [ 21.619337729444375, 47.523574821209884 ], [ 21.619260637670095, 47.523796765329507 ], [ 21.619117416502352, 47.523968846414768 ], [ 21.618691039730571, 47.524371926133675 ], [ 21.61778361261587, 47.525251466526761 ], [ 21.617018457466862, 47.525984982334293 ], [ 21.616761546467618, 47.526213903599348 ], [ 21.616630916241444, 47.526351476587692 ], [ 21.616573369273073, 47.526478494570199 ], [ 21.616531327991275, 47.526608143396757 ], [ 21.615169538355126, 47.527769335499904 ], [ 21.614393154134788, 47.528453977236545 ], [ 21.614134700550686, 47.528560909507789 ], [ 21.613282804986234, 47.528798587574798 ], [ 21.612809273665349, 47.528910297723641 ], [ 21.612511815282502, 47.529028509186325 ], [ 21.612174422773439, 47.529229447632382 ], [ 21.61184469372273, 47.529543303339267 ], [ 21.611482221429487, 47.529906989582393 ] ], [ [ 21.617230458362098, 47.519949480761078 ], [ 21.617405337650656, 47.520016785904254 ], [ 21.617626009026804, 47.520085484494565 ], [ 21.61784936237499, 47.520136021376771 ], [ 21.617943911655523, 47.520138742509829 ] ], [ [ 21.617276485857854, 47.51989455339892 ], [ 21.61768838683119, 47.520061568859546 ], [ 21.617943911655523, 47.520138742509829 ] ], [ [ 21.617335082826123, 47.519847793503025 ], [ 21.618268194941813, 47.520231680964244 ] ], [ [ 21.617393591286454, 47.519756385030504 ], [ 21.618154338594994, 47.520063660300409 ], [ 21.618468260079631, 47.520218374334306 ] ], [ [ 21.618468260079631, 47.520218374334306 ], [ 21.618166195093544, 47.520014320833567 ], [ 21.617436878425785, 47.519718413409883 ] ], [ [ 21.618443137564576, 47.520055617671311 ], [ 21.618216490942086, 47.519961711537618 ], [ 21.617525082466742, 47.519688291108565 ] ], [ [ 21.618443137564576, 47.520055617671311 ], [ 21.618284323952622, 47.51994008758998 ], [ 21.618012729949186, 47.519825460479296 ], [ 21.617555998978695, 47.519640136258971 ] ], [ [ 21.617685974808957, 47.519442951400251 ], [ 21.617941324520835, 47.519541046269154 ], [ 21.618109314854141, 47.519649936263811 ], [ 21.618318507145684, 47.519824682830553 ], [ 21.618655200902634, 47.520228288419339 ] ], [ [ 21.619331560475409, 47.520802926019201 ], [ 21.619015915840912, 47.520490567853351 ], [ 21.618883839628406, 47.520363179560057 ], [ 21.618454757921953, 47.519793489447331 ], [ 21.617800446169372, 47.518865174273202 ] ], [ [ 21.617943911655523, 47.520138742509829 ], [ 21.618268194941813, 47.520231680964244 ] ], [ [ 21.61974670827702, 47.521109847515085 ], [ 21.619545911276926, 47.520839179082131 ], [ 21.619461077048147, 47.520730851349853 ], [ 21.619274785068004, 47.520538701600366 ], [ 21.619032009665396, 47.520308389025693 ], [ 21.618915122349527, 47.52017583522403 ], [ 21.617912032087339, 47.518815222498333 ] ], [ [ 21.618655200902634, 47.520228288419339 ], [ 21.618196730165398, 47.51961580843664 ] ], [ [ 21.618268194941813, 47.520231680964244 ], [ 21.618518007915625, 47.520337943122875 ], [ 21.618680554151116, 47.520432472377543 ] ], [ [ 21.618655200902634, 47.520228288419339 ], [ 21.618443137564576, 47.520055617671311 ] ], [ [ 21.618468260079631, 47.520218374334306 ], [ 21.618699434616513, 47.520405502750343 ], [ 21.618872369818479, 47.520518304098601 ] ], [ [ 21.619331560475409, 47.520802926019201 ], [ 21.619105228951177, 47.520642239849693 ], [ 21.618842894360046, 47.520449370393422 ], [ 21.618655200902634, 47.520228288419339 ] ], [ [ 21.618680554151116, 47.520432472377543 ], [ 21.618872369818479, 47.520518304098601 ] ], [ [ 21.618680554151116, 47.520432472377543 ], [ 21.618870925668833, 47.520610855397408 ] ], [ [ 21.619029047467805, 47.51996613422132 ], [ 21.618839247385921, 47.519823941876645 ], [ 21.618739383946533, 47.519723993670446 ], [ 21.618640020657693, 47.519585417556122 ] ], [ [ 21.619328591770035, 47.520254518037959 ], [ 21.619152568683528, 47.520051878249518 ], [ 21.619020013197897, 47.519841233562197 ], [ 21.618664314824912, 47.519351969388069 ] ], [ [ 21.61889237937833, 47.519817528640978 ], [ 21.618784367519019, 47.51972098009454 ], [ 21.618680180709799, 47.519580902458806 ] ], [ [ 21.618712539850748, 47.519562482159024 ], [ 21.61889237937833, 47.519817528640978 ] ], [ [ 21.619131907099284, 47.520849210002005 ], [ 21.619046730317777, 47.520782724350731 ], [ 21.618870925668833, 47.520610855397408 ] ], [ [ 21.618870925668833, 47.520610855397408 ], [ 21.618912502928062, 47.520708884205021 ], [ 21.618952230552921, 47.520793277473572 ], [ 21.619078430742107, 47.520897465729838 ] ], [ [ 21.618872369818479, 47.520518304098601 ], [ 21.619331560475409, 47.520802926019201 ] ], [ [ 21.61889237937833, 47.519817528640978 ], [ 21.619029047467805, 47.51996613422132 ] ], [ [ 21.619328591770035, 47.520254518037959 ], [ 21.619144334497975, 47.520065738487155 ], [ 21.619029047467805, 47.51996613422132 ] ], [ [ 21.61974670827702, 47.521109847515085 ], [ 21.619433385869218, 47.520869844943199 ], [ 21.619331560475409, 47.520802926019201 ] ], [ [ 21.619328591770035, 47.520254518037959 ], [ 21.619483341064431, 47.520382200645805 ], [ 21.619656537720111, 47.520443069158539 ], [ 21.619873128929292, 47.520470233773963 ], [ 21.620484479561817, 47.520458480440745 ] ], [ [ 21.620087077364953, 47.521579058863409 ], [ 21.620018062405045, 47.521469740114441 ], [ 21.619923877342732, 47.521317085908649 ], [ 21.61984134234449, 47.521132923610402 ], [ 21.619778137462735, 47.520917082055384 ], [ 21.619710941630043, 47.52070951350791 ], [ 21.619657902231829, 47.520612486614652 ], [ 21.619582559276687, 47.520508516721186 ], [ 21.619500078120261, 47.520415865996533 ], [ 21.619328591770035, 47.520254518037959 ] ], [ [ 21.620087077364953, 47.521579058863409 ], [ 21.61974670827702, 47.521109847515085 ] ], [ [ 21.619974156381385, 47.521967716205062 ], [ 21.620019968522087, 47.521870717972604 ], [ 21.62008970729212, 47.521701017564872 ], [ 21.620087077364953, 47.521579058863409 ] ], [ [ 21.619974156381385, 47.521967716205062 ], [ 21.620097619224932, 47.521783333087747 ], [ 21.620380221698696, 47.521349228261194 ], [ 21.620432498700627, 47.521204469156103 ], [ 21.620465921030053, 47.521033346089524 ], [ 21.62047109244185, 47.520891125192698 ], [ 21.620477804952319, 47.520622388496335 ], [ 21.620484479561817, 47.520458480440745 ] ], [ [ 21.620484479561817, 47.520458480440745 ], [ 21.620600639102328, 47.520456246884635 ], [ 21.621766809330115, 47.520451071264475 ], [ 21.625037753455882, 47.52040856426671 ], [ 21.625900631477634, 47.520422768776896 ], [ 21.626463123815508, 47.52042582393004 ], [ 21.626628562538173, 47.520439982878848 ], [ 21.626788395929264, 47.520474355156807 ] ], [ [ 21.620484479561817, 47.520458480440745 ], [ 21.620486568810616, 47.520407174651737 ], [ 21.620534646800831, 47.519746539091834 ], [ 21.620562948620488, 47.519515265360148 ], [ 21.620591449696235, 47.519197682138376 ], [ 21.620615028942975, 47.518914433025294 ], [ 21.620669777354294, 47.518730186060871 ], [ 21.620750584246974, 47.518630175000318 ], [ 21.620875505037137, 47.518511323921267 ], [ 21.621033216150408, 47.518411829667023 ], [ 21.621151693251857, 47.518363802830187 ], [ 21.621282346513091, 47.518317736321038 ], [ 21.621526288916254, 47.518275094778353 ], [ 21.621693638074742, 47.518260945662156 ], [ 21.621884459589729, 47.518255200772636 ], [ 21.622674687251013, 47.518311969871725 ], [ 21.623340402942006, 47.518360352815357 ], [ 21.623563799504304, 47.518369502231742 ], [ 21.623935447306572, 47.518446022303699 ], [ 21.624203812364396, 47.518544191705146 ], [ 21.624379009635391, 47.51862360873313 ], [ 21.624710755050963, 47.51878285851771 ], [ 21.625377567616539, 47.519124345452298 ], [ 21.625907247948756, 47.519401187817103 ] ], [ [ 21.626788395929264, 47.520474355156807 ], [ 21.627008622227692, 47.520553505955611 ], [ 21.627223026677736, 47.52064841071158 ], [ 21.627450945196912, 47.520705068421336 ], [ 21.627652518215164, 47.520716930074599 ], [ 21.627897288795115, 47.520713689282303 ] ], [ [ 21.627317398364706, 47.521104611544644 ], [ 21.627337599901232, 47.52100074248294 ], [ 21.627340898808836, 47.520910643464148 ], [ 21.627308980568014, 47.520819099692588 ], [ 21.627247573542565, 47.520753511478432 ], [ 21.627141122587219, 47.520665121796256 ], [ 21.627016201684526, 47.520580864924362 ], [ 21.626788395929264, 47.520474355156807 ] ], [ [ 21.630581532851156, 47.55337882639396 ], [ 21.630579150780118, 47.552397605434763 ], [ 21.630539561549579, 47.552181174279987 ], [ 21.630469210220255, 47.551888122211565 ], [ 21.630425956203307, 47.551722432742793 ], [ 21.630399050660746, 47.551576465687454 ], [ 21.63033193625979, 47.551417261937132 ], [ 21.630236544734679, 47.55122893045224 ] ] ] } }
]
}
