{
"type": "FeatureCollection",
"name": "1",
"crs": { "type": "name", "properties": { "name": "urn:ogc:def:crs:OGC:1.3:CRS84" } },
"features": [
{ "type": "Feature", "properties": { "fid": 51, "Line": 1.0, "auxiliary_storage_labeling_show": null }, "geometry": { "type": "MultiLineString", "coordinates": [ [ [ 21.628453782259939, 47.54893912348561 ], [ 21.628572537153193, 47.549131217478475 ], [ 21.628671669137692, 47.54927110633178 ], [ 21.628829587413307, 47.549444649114207 ], [ 21.628935809076903, 47.54952709090778 ], [ 21.629066751112482, 47.54964320412774 ], [ 21.629197874989284, 47.549763033165135 ], [ 21.629472489777058, 47.550008366315275 ], [ 21.629625342909225, 47.550145565112295 ], [ 21.629778958333098, 47.55029837076907 ], [ 21.629850417734957, 47.550389029225741 ] ], [ [ 21.629551905339198, 47.556152435128716 ], [ 21.629085500934071, 47.556144262580474 ], [ 21.628720572203711, 47.556143492041649 ], [ 21.628323116508447, 47.556129311233846 ], [ 21.628022074467165, 47.556108882623619 ], [ 21.627702095096545, 47.556049444214871 ], [ 21.627555677774104, 47.55601067941884 ], [ 21.627314780626055, 47.555916364956289 ], [ 21.627080797587006, 47.555828591583293 ], [ 21.626899826318574, 47.555734797650416 ], [ 21.626747997812462, 47.555652628580532 ], [ 21.626571841340354, 47.555556122606774 ], [ 21.626321374041243, 47.555434491791992 ], [ 21.626051181779793, 47.555280192796808 ], [ 21.625623399439743, 47.555049431366974 ], [ 21.62527643968339, 47.554853320369148 ], [ 21.625088923780385, 47.554726561713139 ], [ 21.624981455037346, 47.554641168241538 ], [ 21.624803097259694, 47.554499324689395 ], [ 21.624633269790813, 47.554352082487668 ], [ 21.624447096462578, 47.55418511676703 ], [ 21.624193703899419, 47.553946738493856 ], [ 21.623813908777386, 47.553595115567049 ], [ 21.623494533240113, 47.553310591824825 ], [ 21.623364994154777, 47.553178073148764 ], [ 21.623188649579571, 47.55298707820527 ], [ 21.623042032108209, 47.552774587915287 ], [ 21.622917950509205, 47.552573498860717 ], [ 21.622762893624401, 47.552277868240736 ], [ 21.622658357511757, 47.552071879004878 ], [ 21.622645465508757, 47.551965030217879 ], [ 21.622638400860456, 47.551842427426578 ], [ 21.622646583827006, 47.551739572646795 ], [ 21.622693310502829, 47.551615770217836 ], [ 21.622777121139617, 47.551463612617297 ], [ 21.622902078671011, 47.551344017319366 ], [ 21.623035624246967, 47.551242830372736 ], [ 21.623236399218193, 47.551123031555562 ], [ 21.623395228454903, 47.551022024163338 ], [ 21.623543911438119, 47.550938354953146 ], [ 21.623777774175846, 47.550798472886896 ], [ 21.624044725547989, 47.550638507909277 ], [ 21.624402258514245, 47.550443040657321 ], [ 21.624569467443543, 47.550333660490317 ], [ 21.624786822341999, 47.550193400664021 ], [ 21.6250506677668, 47.5500826067369 ], [ 21.625239009172173, 47.550001025919187 ], [ 21.625438942859603, 47.549931834024868 ], [ 21.62574308927168, 47.549858826849437 ], [ 21.625978909883251, 47.54980445674174 ], [ 21.626184174311323, 47.549754488569377 ], [ 21.626528500452828, 47.549671653895281 ], [ 21.628370057491953, 47.549260736241855 ], [ 21.628500812013655, 47.549147700876077 ], [ 21.628476274835123, 47.549039805329663 ], [ 21.628453782259939, 47.54893912348561 ] ], [ [ 21.628453782259939, 47.54893912348561 ], [ 21.628206514206838, 47.548525872520209 ], [ 21.627705173584925, 47.547694176099149 ], [ 21.627178372738829, 47.546821071616627 ], [ 21.626687272363625, 47.545992545629382 ], [ 21.626190486388982, 47.545184564883876 ], [ 21.625647734200815, 47.544292524376921 ], [ 21.625343838550457, 47.543797880483474 ], [ 21.625074890468561, 47.54305741303402 ], [ 21.624938000704169, 47.542671917843059 ], [ 21.624921558161855, 47.542540687969534 ], [ 21.624933308361427, 47.542214269380914 ], [ 21.62495033657579, 47.54187582112548 ], [ 21.625128565136738, 47.539996584252172 ], [ 21.625263295648836, 47.538652079601114 ], [ 21.625291373989263, 47.538403006302282 ], [ 21.625878567421235, 47.535909398597155 ], [ 21.625915412280889, 47.535634036466831 ], [ 21.625937380682256, 47.53500165183501 ], [ 21.625934893480892, 47.534714121872867 ], [ 21.625909090710067, 47.534562680628305 ], [ 21.62588290174336, 47.534403306782259 ], [ 21.625737179589688, 47.533818911473517 ], [ 21.625718035728607, 47.533735389031193 ], [ 21.625659869354479, 47.533504123911797 ], [ 21.625588133658812, 47.53330379224591 ], [ 21.62546035165412, 47.533087695367215 ], [ 21.625359565605869, 47.532978769164785 ], [ 21.625151559381376, 47.532800766293519 ], [ 21.625042904592807, 47.532702225688759 ], [ 21.624969260171806, 47.532531432247673 ], [ 21.624851908013863, 47.532219807205514 ], [ 21.624723028177943, 47.531877809011171 ], [ 21.624677426905976, 47.531732481825898 ], [ 21.624659609343929, 47.531572920766649 ], [ 21.624685277964083, 47.531239950804675 ], [ 21.624711461072945, 47.530883145640196 ], [ 21.624723228577547, 47.530677545550432 ], [ 21.624762576728152, 47.53052238033338 ], [ 21.624821874522567, 47.530346916569826 ], [ 21.624915297952441, 47.530132686295907 ], [ 21.62505176331965, 47.529787598957789 ], [ 21.625152006017192, 47.529541451218144 ], [ 21.625291906431919, 47.529180971525847 ], [ 21.625530463422148, 47.528610681560387 ], [ 21.625808616687003, 47.527924925708 ], [ 21.625944868622877, 47.527592887912093 ], [ 21.626192125539756, 47.526995174533404 ], [ 21.626323977803409, 47.52664167960166 ], [ 21.626396776793982, 47.52638252993092 ], [ 21.626454287908562, 47.5261362008821 ], [ 21.626513737134193, 47.525860899659783 ], [ 21.626542154879299, 47.525687826256586 ], [ 21.626570882718209, 47.525452350430925 ], [ 21.626624201648781, 47.524999642549474 ], [ 21.626662559592884, 47.52468680791474 ], [ 21.626695972258922, 47.524392802394473 ], [ 21.626737110787715, 47.523982341638423 ], [ 21.626785745426016, 47.523467909823481 ], [ 21.626804360820081, 47.523265559194918 ], [ 21.626879610734168, 47.522437987448001 ], [ 21.626911116343255, 47.522104885210162 ], [ 21.626929956041653, 47.522010303572721 ], [ 21.626959971216877, 47.521870093559016 ], [ 21.626994170890097, 47.52178140813681 ], [ 21.627048248821655, 47.521667147750357 ], [ 21.627155326284349, 47.521452711334312 ], [ 21.627317398364706, 47.521104611544644 ] ], [ [ 21.627317398364706, 47.521104611544644 ], [ 21.627390983506046, 47.520946724328894 ], [ 21.627466994219514, 47.52083863153095 ], [ 21.627564346387, 47.520762798007617 ], [ 21.627688960335171, 47.520728019469004 ], [ 21.627897288795115, 47.520713689282303 ], [ 21.628018951894514, 47.520731057114901 ], [ 21.628121544122859, 47.520785307813924 ], [ 21.628260201958359, 47.520903480831329 ] ], [ [ 21.627317398364706, 47.521104611544644 ], [ 21.627385463331407, 47.520979956203476 ], [ 21.627443246316492, 47.520903519356352 ], [ 21.627517113308226, 47.520841603102205 ], [ 21.627579118029782, 47.520806736386696 ], [ 21.627685044480149, 47.520771631644223 ], [ 21.627787559999948, 47.52075669135516 ], [ 21.627872075960497, 47.520755545635062 ], [ 21.628003577189627, 47.520771949495646 ], [ 21.628116706271172, 47.520817036456073 ], [ 21.628200212722462, 47.520862785752733 ], [ 21.628260201958359, 47.520903480831329 ] ], [ [ 21.630524687064437, 47.555196211706246 ], [ 21.6305195769867, 47.555676952410138 ], [ 21.630479469300191, 47.555845994347536 ], [ 21.630352276604842, 47.555987223916404 ], [ 21.630180825100361, 47.556077362927745 ], [ 21.629996725913035, 47.556133560355832 ], [ 21.629782703526313, 47.556162154479622 ], [ 21.629566867759692, 47.55615358858514 ] ], [ [ 21.628260201958359, 47.520903480831329 ], [ 21.628344639932745, 47.520990873802134 ], [ 21.628372326856297, 47.521063167673148 ], [ 21.628356200412099, 47.521137929403494 ], [ 21.62831960081677, 47.521198268767002 ], [ 21.628257321513026, 47.521272574585922 ], [ 21.628197438554974, 47.521305906189625 ], [ 21.628091692467276, 47.521344727400603 ], [ 21.627946821561761, 47.52136954314426 ], [ 21.627852321607829, 47.521368680101787 ], [ 21.627745655091282, 47.521343536660403 ], [ 21.627619276164051, 47.521319577852722 ], [ 21.627519181917076, 47.521316607581838 ], [ 21.627413591035271, 47.521336080418607 ], [ 21.627318634801632, 47.52137093964096 ], [ 21.627239762716137, 47.521420319444644 ], [ 21.627177673653005, 47.521476020125498 ], [ 21.627152152657544, 47.521538343463092 ], [ 21.62700946507076, 47.521878569542316 ], [ 21.626984475660191, 47.521974361402584 ], [ 21.626960246419884, 47.522085760474766 ], [ 21.626937841233183, 47.522279703887023 ], [ 21.626920824249876, 47.522448974517928 ], [ 21.626894965958268, 47.522820069447469 ], [ 21.626817110463762, 47.523611947979681 ], [ 21.62676058998662, 47.52430067609297 ], [ 21.626646181176369, 47.525334429993642 ], [ 21.626610165998461, 47.525677479090838 ], [ 21.626559051065701, 47.525936048511497 ], [ 21.626498600974593, 47.526138281787951 ], [ 21.626383898342244, 47.526579810145748 ], [ 21.626304709590354, 47.526803294200874 ], [ 21.626110760073324, 47.527286769224794 ], [ 21.625432210101412, 47.528962553787117 ], [ 21.62520038195181, 47.529525737468823 ], [ 21.625035714232585, 47.529934155122675 ], [ 21.624827319542618, 47.530437293797725 ], [ 21.624775467582833, 47.530613293383595 ], [ 21.624758983687794, 47.530793711269538 ], [ 21.624726618670373, 47.531257206560738 ], [ 21.624703610718356, 47.531596987633044 ], [ 21.624724231785795, 47.531749792713612 ], [ 21.624789929765807, 47.531948463759662 ], [ 21.6248839794468, 47.532210486326527 ], [ 21.625006104031279, 47.532507594254042 ], [ 21.625061890791621, 47.532638037799408 ], [ 21.625166698511535, 47.532759946558258 ], [ 21.625296830885819, 47.53286045747069 ], [ 21.625437226651545, 47.532991243323757 ], [ 21.625550731050819, 47.533133789731103 ], [ 21.625621763188025, 47.53328398072393 ], [ 21.625740128840334, 47.533436090475561 ], [ 21.625791963096638, 47.533575550062565 ], [ 21.625996091664405, 47.534473471097591 ], [ 21.626044734253174, 47.534705258732451 ], [ 21.626072438500731, 47.53482293698805 ], [ 21.626089833422775, 47.534999622080981 ], [ 21.626099896941042, 47.535206231213422 ], [ 21.626097008409268, 47.535417593701084 ], [ 21.626077900071909, 47.535656846745425 ], [ 21.626077208173456, 47.53593586474959 ], [ 21.626032578078345, 47.536079710971713 ], [ 21.625969909686052, 47.536372017406343 ], [ 21.625584764976203, 47.53800627344085 ], [ 21.625528568277698, 47.538296202812276 ], [ 21.625487300697721, 47.538509166110664 ], [ 21.625474229603924, 47.538669419293456 ], [ 21.625456346812292, 47.538866236206019 ], [ 21.625367873880844, 47.5397963590827 ], [ 21.625304766530963, 47.540350564405827 ], [ 21.625294793497279, 47.540461643916686 ], [ 21.625251258938089, 47.540943987509067 ], [ 21.625204262106561, 47.541434220357118 ], [ 21.625158844646833, 47.541945621976581 ], [ 21.625127246960034, 47.542266993649555 ], [ 21.625118214774943, 47.542465100643042 ], [ 21.62513638090282, 47.542635072191764 ], [ 21.625219982746248, 47.542975447876444 ], [ 21.62533804585658, 47.543323982093227 ], [ 21.625503490084093, 47.543742882662428 ], [ 21.62566848826609, 47.544039776173932 ], [ 21.625872461483464, 47.54439234342729 ], [ 21.626133903325879, 47.544841835453227 ], [ 21.626434324086965, 47.545347000623636 ], [ 21.626834969231737, 47.545992030984678 ], [ 21.628753640130622, 47.549125308985083 ], [ 21.628922039022143, 47.549423610121693 ], [ 21.629092023493168, 47.54961920294361 ], [ 21.629221133156893, 47.549742797012335 ], [ 21.629391284898524, 47.549896721422712 ], [ 21.62966480352847, 47.550142078651433 ], [ 21.629884762241534, 47.550370777018514 ], [ 21.630059071805039, 47.550564783768557 ], [ 21.630152128911085, 47.550805247938214 ] ], [ [ 21.629850417734957, 47.550389029225741 ], [ 21.629939286571368, 47.550498642400626 ], [ 21.630083050603631, 47.550674732150085 ], [ 21.630152128911085, 47.550805247938214 ] ], [ [ 21.630524687064437, 47.555196211706246 ], [ 21.630521954568213, 47.554837662988717 ], [ 21.630515244658532, 47.554655160126458 ], [ 21.630491572731696, 47.55447415267075 ], [ 21.630480112633723, 47.554318168183286 ], [ 21.630472906830342, 47.554012915723824 ], [ 21.630471892758248, 47.553733192879932 ], [ 21.630471739665861, 47.553493626977627 ], [ 21.630466281540823, 47.553336764188465 ], [ 21.630468120857739, 47.553059209473886 ], [ 21.630464293507643, 47.552811913665288 ], [ 21.630460481097149, 47.552700026294481 ], [ 21.630447174191321, 47.552585003279177 ], [ 21.630425365536002, 47.552498442596594 ], [ 21.630406905866934, 47.552367910739612 ], [ 21.630389216495363, 47.552275677873197 ], [ 21.630367844476464, 47.552153023195302 ], [ 21.630335881549037, 47.55198224511841 ], [ 21.630309115162071, 47.551895423299122 ], [ 21.630259768343713, 47.551604877305607 ], [ 21.630228327144181, 47.551456035649522 ], [ 21.630137343914381, 47.550987859766202 ], [ 21.630092621482369, 47.550837083102458 ], [ 21.630032168024417, 47.550679218211449 ], [ 21.629935126354543, 47.55051473154429 ], [ 21.629850417734957, 47.550389029225741 ] ], [ [ 21.630152128911085, 47.550805247938214 ], [ 21.630198012068753, 47.550979806769938 ], [ 21.630236544734679, 47.55122893045224 ], [ 21.630376518415925, 47.551800171059128 ], [ 21.630440161765112, 47.552203485885109 ], [ 21.630501213564528, 47.552508650040977 ], [ 21.630526265802445, 47.552796763333546 ], [ 21.630528128819556, 47.553060099179717 ], [ 21.630526998190629, 47.553307133877162 ], [ 21.63052079186097, 47.554125677229244 ], [ 21.630526326231898, 47.554531779602634 ], [ 21.630524687064437, 47.555196211706246 ] ] ] } }
]
}
