{
"type": "FeatureCollection",
"name": "3",
"crs": { "type": "name", "properties": { "name": "urn:ogc:def:crs:OGC:1.3:CRS84" } },
"features": [
{ "type": "Feature", "properties": { "fid": 2, "Line": 3.0, "auxiliary_storage_labeling_show": null }, "geometry": { "type": "MultiLineString", "coordinates": [ [ [ 21.630545477572493, 47.565298558195529 ], [ 21.630545734668264, 47.565979313700289 ], [ 21.630533903949555, 47.566851547669806 ], [ 21.630554163699838, 47.567491679470841 ], [ 21.630557556277271, 47.568799556995685 ], [ 21.630541901365383, 47.570820612167068 ], [ 21.630558931211159, 47.572723011219807 ], [ 21.63056305458025, 47.573010102899346 ], [ 21.630556063752952, 47.573519898945541 ], [ 21.630567053424247, 47.574015156866722 ], [ 21.630563687808671, 47.574351519846338 ], [ 21.630569937222528, 47.574547051930359 ], [ 21.630574613638231, 47.575081882819966 ], [ 21.630570636502028, 47.575991138615606 ], [ 21.630581088015006, 47.577060775260691 ], [ 21.630596093719809, 47.578268693439597 ], [ 21.630604029599358, 47.579658304787515 ], [ 21.630589265711059, 47.579785867616948 ], [ 21.630582851971464, 47.58003218580928 ], [ 21.630578651800199, 47.580323832326314 ], [ 21.630565804965844, 47.581056404292688 ], [ 21.630571082623945, 47.581507795627147 ], [ 21.630566092722024, 47.582143763808823 ], [ 21.630553319746276, 47.582637533011592 ], [ 21.630560141065317, 47.583395189718324 ], [ 21.630555446522884, 47.586011323259775 ], [ 21.630535454524054, 47.587387283031163 ], [ 21.6305540890788, 47.58794047476772 ], [ 21.630631106107348, 47.588281354893915 ], [ 21.630656267163904, 47.588590495360599 ], [ 21.630542855238907, 47.588877775787388 ], [ 21.630189621454853, 47.589439279361116 ], [ 21.629703543768304, 47.590130807718147 ], [ 21.629487563426579, 47.590515671832492 ], [ 21.629429731016771, 47.590979816200921 ], [ 21.629447032996229, 47.591213975390382 ], [ 21.629528052354651, 47.59146514554989 ], [ 21.629736102686426, 47.591845072319238 ], [ 21.630015971530444, 47.592081588590972 ], [ 21.630569074316846, 47.592418634540905 ], [ 21.631193317266604, 47.592769969625458 ], [ 21.632769758096323, 47.593662686756112 ], [ 21.633876063784914, 47.594268682161591 ], [ 21.634784984054896, 47.594747491327581 ], [ 21.635436391700786, 47.595104435737198 ], [ 21.636519526115617, 47.595715463565867 ], [ 21.637170419817551, 47.596095666220556 ], [ 21.637960890595046, 47.596517547368592 ], [ 21.638435374408587, 47.596771236277924 ] ] ] } },
{ "type": "Feature", "properties": { "fid": 55, "Line": 3.0, "auxiliary_storage_labeling_show": null }, "geometry": { "type": "MultiLineString", "coordinates": [ [ [ 21.630545477572493, 47.565298558195529 ], [ 21.630542009786119, 47.564818010777245 ], [ 21.630538458636074, 47.564137328697115 ], [ 21.630534214181957, 47.563622574393634 ], [ 21.630545216515099, 47.562632061731215 ], [ 21.630541935541849, 47.561236386932165 ], [ 21.630529671206546, 47.559454031025567 ], [ 21.630528032336798, 47.558497279944532 ], [ 21.63053035472463, 47.558117042436386 ], [ 21.630525893187016, 47.55759782801988 ], [ 21.630511930592085, 47.557131650270875 ], [ 21.630522615859817, 47.556877706125938 ], [ 21.630517081266188, 47.556471604046564 ], [ 21.630530107229703, 47.556220583503958 ], [ 21.630551079653181, 47.556042297543719 ], [ 21.630564850011115, 47.555761500161168 ], [ 21.630561995701658, 47.555590443161748 ], [ 21.630562354844656, 47.555350121925933 ], [ 21.630572734109609, 47.554954823740836 ], [ 21.630569887692186, 47.554423668623748 ], [ 21.630572629725666, 47.553916940547168 ], [ 21.630581532851156, 47.55337882639396 ] ] ] } }
]
}
