{
"type": "FeatureCollection",
"name": "4",
"crs": { "type": "name", "properties": { "name": "urn:ogc:def:crs:OGC:1.3:CRS84" } },
"features": [
{ "type": "Feature", "properties": { "fid": 18, "Line": 4.0, "auxiliary_storage_labeling_show": null }, "geometry": { "type": "MultiLineString", "coordinates": [ [ [ 21.626559051065701, 47.525936048511497 ], [ 21.626466445561391, 47.526277293001193 ], [ 21.626476230572976, 47.52645563652009 ], [ 21.626509766100334, 47.526535240127927 ], [ 21.626581235272429, 47.526604323945222 ], [ 21.626703660534702, 47.526659620854296 ], [ 21.626792455225218, 47.526678468763564 ], [ 21.62776104531132, 47.526808596611104 ], [ 21.629467688227351, 47.527026369171757 ], [ 21.630543787532002, 47.527153324803145 ], [ 21.631433482776011, 47.527242035272323 ], [ 21.632630109913176, 47.527362553169205 ], [ 21.63585959341923, 47.527541649037303 ], [ 21.63604525111813, 47.527541949362885 ], [ 21.636198691702734, 47.527523627689277 ], [ 21.636336374169986, 47.527486314961848 ], [ 21.636451053565608, 47.527439101891218 ], [ 21.636596797514336, 47.527353247234799 ], [ 21.636803126254236, 47.527214696375886 ], [ 21.637101492491322, 47.527026463313931 ], [ 21.637257512848265, 47.52693740114028 ], [ 21.637361235788255, 47.526890804966079 ], [ 21.637496688234521, 47.52684163663541 ], [ 21.637777274256766, 47.526716669760276 ], [ 21.63800007976392, 47.526623131585986 ], [ 21.638198657152088, 47.526517116588799 ], [ 21.638751306897753, 47.526239097386437 ], [ 21.640343530370426, 47.525420635860741 ], [ 21.64083924473108, 47.525158021429498 ], [ 21.641307227416565, 47.524912396307855 ], [ 21.641626516097254, 47.5247482330144 ], [ 21.641674871294054, 47.524726313708989 ], [ 21.641784779719419, 47.524705242799214 ], [ 21.642102794595409, 47.524672053270486 ], [ 21.642389650049392, 47.524630635278342 ], [ 21.642634337477556, 47.52458049258108 ], [ 21.642718689521416, 47.524559065411367 ], [ 21.642928882285872, 47.524488679337381 ], [ 21.643149247206754, 47.524390535544313 ], [ 21.643395406827121, 47.524280836895663 ], [ 21.643606928626919, 47.524181589065947 ], [ 21.643806012034929, 47.524097500949267 ], [ 21.643999495583365, 47.524033626866526 ], [ 21.644372011732628, 47.523924803242608 ], [ 21.644670791948247, 47.523835494137543 ], [ 21.64491858635752, 47.523759235997474 ], [ 21.645220434145759, 47.52368771275578 ], [ 21.645464680255422, 47.523606325166632 ], [ 21.645735297775285, 47.523502766875474 ], [ 21.646335959927612, 47.523298030173265 ], [ 21.647329422446411, 47.522950519125878 ], [ 21.648684581935566, 47.522475804593334 ], [ 21.649794643961027, 47.522087698490431 ], [ 21.649953551850302, 47.522035753979374 ], [ 21.650155797685269, 47.521971671607105 ], [ 21.650504038578784, 47.521883463462046 ], [ 21.650951643974985, 47.52178334043338 ], [ 21.651196383657247, 47.521723505658393 ], [ 21.652094202351645, 47.521520589403686 ], [ 21.653276081786878, 47.521253590846584 ], [ 21.654893251652499, 47.52088225530624 ], [ 21.655301599903222, 47.520788210114894 ], [ 21.655646240230261, 47.520694115267666 ], [ 21.655892723971377, 47.520614142339433 ], [ 21.656341584738236, 47.520450727852541 ], [ 21.657212566872616, 47.520149794816753 ], [ 21.658312643698746, 47.519761829846125 ] ] ] } }
]
}
