{
"type": "FeatureCollection",
"name": "5",
"crs": { "type": "name", "properties": { "name": "urn:ogc:def:crs:OGC:1.3:CRS84" } },
"features": [
{ "type": "Feature", "properties": { "fid": 50, "Line": 5.0, "auxiliary_storage_labeling_show": null }, "geometry": { "type": "MultiLineString", "coordinates": [ [ [ 21.62316075566897, 47.531557490070199 ], [ 21.622801715370485, 47.531471012412034 ], [ 21.621724867746909, 47.531194454637301 ], [ 21.621253228866085, 47.531074027079811 ], [ 21.620611990054016, 47.530885488975841 ], [ 21.620027230964094, 47.530720333819822 ], [ 21.619462014946254, 47.530572968448233 ], [ 21.61928727660899, 47.530526269561676 ], [ 21.618949207455032, 47.530441544943081 ], [ 21.618627455157103, 47.530353479867401 ], [ 21.61802631597298, 47.530224019956691 ], [ 21.617385196122239, 47.53007424299561 ], [ 21.616863346736139, 47.529914739544552 ], [ 21.616300363264518, 47.52979037350439 ], [ 21.615875506315412, 47.529705339548499 ], [ 21.615320877548438, 47.529617239152259 ], [ 21.614794198246543, 47.529550462600696 ], [ 21.614395216335023, 47.529500559973229 ], [ 21.614161482591218, 47.529460373520841 ], [ 21.614059994932763, 47.529417618008786 ], [ 21.613960253221276, 47.529388215668931 ], [ 21.613549903860569, 47.529330378874846 ], [ 21.613277926110744, 47.529271696785294 ], [ 21.612974774842836, 47.529227099041989 ], [ 21.612732230657471, 47.529231745820383 ], [ 21.612520538309099, 47.529261002606795 ], [ 21.612302460539173, 47.529317185034266 ], [ 21.612078015640222, 47.529423356771133 ], [ 21.611848804211998, 47.529589898252553 ], [ 21.611482221429487, 47.529906989582393 ], [ 21.611336764441969, 47.530124493654256 ], [ 21.611282726940264, 47.530278958657895 ], [ 21.611202068125898, 47.530700368112569 ], [ 21.611087949590086, 47.531338281486661 ], [ 21.611026321043433, 47.531789772081972 ], [ 21.611051328223606, 47.531943225315821 ], [ 21.611123721630285, 47.532167794401168 ], [ 21.611467470031059, 47.533073050967737 ], [ 21.611749069121984, 47.533806334503964 ], [ 21.611870005485997, 47.533989648605029 ], [ 21.612062761972712, 47.534204103103427 ], [ 21.612202157905521, 47.534360222661086 ], [ 21.612267395904333, 47.534482277640961 ], [ 21.612314571181493, 47.534594317884604 ], [ 21.612337801863816, 47.534733674241131 ], [ 21.612325950618686, 47.534874554083792 ], [ 21.612282542795104, 47.534999023002747 ], [ 21.612029611133956, 47.535719628935645 ], [ 21.611806751682526, 47.536335405678258 ], [ 21.611627856535293, 47.536860924984722 ], [ 21.611425695274299, 47.537427880701443 ], [ 21.610827497682045, 47.539073504484989 ], [ 21.610205289486483, 47.54092915916263 ], [ 21.61009895431495, 47.541250257383354 ], [ 21.60990390308671, 47.541828583135747 ], [ 21.609828409266164, 47.542073546817974 ], [ 21.609800482209462, 47.542177582679201 ], [ 21.609804356501552, 47.543029376922178 ], [ 21.609824668823293, 47.543846210133964 ], [ 21.609835975922664, 47.544647247013785 ], [ 21.609847751707168, 47.545412561323225 ], [ 21.609851882538376, 47.545997253263018 ], [ 21.609834491552444, 47.546591350715921 ], [ 21.609828727293806, 47.547017046212034 ], [ 21.609827533646619, 47.547446360214842 ], [ 21.609802590397301, 47.548213604735579 ], [ 21.609779903010043, 47.549106906779464 ], [ 21.609793529706458, 47.550069338589346 ], [ 21.609801399796655, 47.550912858138034 ], [ 21.609818414847524, 47.551582078980758 ], [ 21.609862683747185, 47.55177007216728 ], [ 21.609971164311158, 47.552013184262947 ], [ 21.610124745855074, 47.552234463415601 ], [ 21.610296001757369, 47.552412198223792 ], [ 21.610510019331709, 47.552565175732624 ], [ 21.611107284558901, 47.552984180422449 ], [ 21.611255779425438, 47.553122987294401 ], [ 21.611806717790657, 47.553697024746953 ] ] ] } }
]
}
