{
"type": "FeatureCollection",
"name": "6",
"crs": { "type": "name", "properties": { "name": "urn:ogc:def:crs:OGC:1.3:CRS84" } },
"features": [
{ "type": "Feature", "properties": { "fid": 11, "Line": 6.0, "auxiliary_storage_labeling_show": null }, "geometry": { "type": "MultiLineString", "coordinates": [ [ [ 21.644709452220205, 47.55753416060827 ], [ 21.645153430952135, 47.557107530235108 ], [ 21.646605591525752, 47.555702904300198 ], [ 21.647707214594583, 47.554636491655053 ], [ 21.648300244286627, 47.554045785301348 ], [ 21.648707385289093, 47.5536534496351 ], [ 21.648796498185309, 47.553565881074881 ], [ 21.648896956023837, 47.55346317665893 ], [ 21.648977433773851, 47.553356458213969 ], [ 21.649026551632129, 47.55323779805321 ], [ 21.64906241906969, 47.553162588974175 ], [ 21.649107587273217, 47.553008305263567 ], [ 21.649130978524198, 47.552902872826415 ], [ 21.64913588813404, 47.552823897135916 ], [ 21.649130148620738, 47.552751857464322 ], [ 21.649121374972381, 47.552640453611751 ], [ 21.649108648626182, 47.552538066933778 ], [ 21.649084906178896, 47.55245750474392 ], [ 21.649053148736279, 47.552392747341109 ], [ 21.649014989117777, 47.552309533913068 ], [ 21.64892717734979, 47.552177590406792 ], [ 21.648860842983702, 47.552080131469857 ], [ 21.648825831102783, 47.551993871028515 ], [ 21.648808564522, 47.551933251170809 ], [ 21.648606852899345, 47.551675159546981 ], [ 21.648304601679566, 47.551272018152204 ], [ 21.647178322263713, 47.549798944618622 ], [ 21.64599448686042, 47.548249035087423 ], [ 21.644604513895782, 47.546426979459213 ], [ 21.644336525247645, 47.546071418334101 ], [ 21.643682187456683, 47.545209689811593 ], [ 21.643403052602956, 47.544850657252987 ], [ 21.64311635177221, 47.544471705887936 ], [ 21.642732358198781, 47.543968459189266 ], [ 21.642216951741968, 47.543294810452238 ], [ 21.641287051749973, 47.542077673172017 ], [ 21.640114058187507, 47.54054011199365 ], [ 21.639325493870317, 47.539503556348052 ], [ 21.63928897809469, 47.53945341147098 ], [ 21.639021460670456, 47.539106012372173 ], [ 21.638847750252761, 47.538879268686664 ], [ 21.638722040338944, 47.538712828168734 ], [ 21.638547053107761, 47.53848239267051 ], [ 21.638463158637585, 47.538384578286021 ], [ 21.638400510798117, 47.538316791408455 ], [ 21.638299377973329, 47.538248380194993 ], [ 21.638197802604658, 47.538193371009683 ], [ 21.638105668456841, 47.53812922174717 ], [ 21.637994010724125, 47.53802533398887 ], [ 21.637898524848911, 47.537915131162798 ], [ 21.637836582243594, 47.53781682376254 ], [ 21.637783674318264, 47.537723521676845 ], [ 21.637486540430331, 47.537264438292063 ], [ 21.637340345451701, 47.537060883468328 ], [ 21.637265271588788, 47.536963614390579 ], [ 21.637229784271785, 47.536911957813359 ], [ 21.637181457992956, 47.536856125191512 ], [ 21.637132212730318, 47.536815193367069 ], [ 21.637084334267051, 47.536790971086901 ], [ 21.636969564889178, 47.536769365310505 ], [ 21.636602886485196, 47.536707653081791 ], [ 21.636457464679307, 47.536677062167158 ], [ 21.636310876458371, 47.536633849064458 ], [ 21.636199131153461, 47.536595434497265 ], [ 21.636105108955434, 47.536559970439178 ], [ 21.635997684762064, 47.536508810618749 ], [ 21.635910229452168, 47.536472827149325 ], [ 21.635810175306851, 47.536426337966624 ], [ 21.635375507117899, 47.536221064493091 ], [ 21.635285480121539, 47.536166165975636 ], [ 21.635236345952201, 47.53612746291936 ], [ 21.635205773945611, 47.536097643858952 ], [ 21.635037531952637, 47.535948521233081 ], [ 21.634945050010796, 47.535854616991308 ], [ 21.63485464656792, 47.53578075435037 ], [ 21.63479755852633, 47.53573664932393 ], [ 21.63473183629868, 47.535695713826584 ], [ 21.634577083714131, 47.535631477318603 ], [ 21.63445916453135, 47.535579063317684 ], [ 21.634353309484627, 47.535548699130672 ], [ 21.633952291316369, 47.535391027044042 ], [ 21.633495577035074, 47.535195168860781 ], [ 21.633341525531787, 47.535122730945702 ], [ 21.633255434279203, 47.535069602773511 ], [ 21.633213821292664, 47.535027382380186 ], [ 21.633195762631701, 47.534995050489087 ], [ 21.633187262640003, 47.534933488123883 ], [ 21.633203567955192, 47.534862442009654 ], [ 21.633257403572745, 47.534795019253522 ], [ 21.633353684058534, 47.534696885279004 ], [ 21.63340780973282, 47.534635408018474 ], [ 21.633425639353725, 47.534595576103769 ], [ 21.633427116511619, 47.534558342544038 ], [ 21.633413564837056, 47.534505821463853 ], [ 21.633372577670322, 47.534453914986045 ], [ 21.633305361411665, 47.534404828086664 ], [ 21.633138079329221, 47.534308878020411 ], [ 21.633034249452301, 47.534252426996609 ], [ 21.632991277257901, 47.534227349189678 ], [ 21.632942463633547, 47.534172641832122 ], [ 21.632883954855263, 47.534121871650257 ], [ 21.632819623871455, 47.534086856035792 ], [ 21.632299034035057, 47.533808722964046 ], [ 21.63210706402382, 47.533713324295576 ], [ 21.631690480630947, 47.533517676778658 ], [ 21.631014403692351, 47.533193542408966 ], [ 21.63080444948066, 47.533078455935716 ], [ 21.630442033512171, 47.532878243771563 ], [ 21.630181684216485, 47.532743451644009 ], [ 21.629738666368233, 47.532512304397791 ], [ 21.629196183846609, 47.532223859544793 ], [ 21.628516432653967, 47.531846224700644 ], [ 21.62778686450288, 47.531483091821023 ], [ 21.627634345482651, 47.531419168460765 ], [ 21.627423913074175, 47.531339055173746 ], [ 21.627126717638188, 47.531259392588368 ], [ 21.626183258138362, 47.530970222704568 ], [ 21.626010924443047, 47.530927944164915 ], [ 21.625854352055303, 47.530893497384561 ], [ 21.625570763940463, 47.53082245502258 ] ] ] } }
]
}
