{
"type": "FeatureCollection",
"name": "7",
"crs": { "type": "name", "properties": { "name": "urn:ogc:def:crs:OGC:1.3:CRS84" } },
"features": [
{ "type": "Feature", "properties": { "fid": 24, "Line": 7.0, "auxiliary_storage_labeling_show": null }, "geometry": { "type": "MultiLineString", "coordinates": [ [ [ 21.623754907326507, 47.561344273776548 ], [ 21.62429342548295, 47.561342675884426 ], [ 21.625186254144953, 47.561348792094805 ], [ 21.626050100873741, 47.561346620473159 ], [ 21.626307162111896, 47.561366176884491 ], [ 21.626564151091046, 47.561384246339266 ], [ 21.626752583199504, 47.561416494332974 ], [ 21.627010442111306, 47.56145239940512 ], [ 21.62729936010173, 47.561516626182502 ], [ 21.627532100318007, 47.561578387240338 ], [ 21.627751882679604, 47.561644901345367 ], [ 21.627938798426623, 47.561713637387733 ], [ 21.628115361546353, 47.561772932441571 ], [ 21.62834739409913, 47.561865211774389 ], [ 21.628562657130701, 47.561974233462315 ], [ 21.628888280204247, 47.562137332286063 ], [ 21.629091711105644, 47.562274145549793 ], [ 21.629297991806283, 47.562424286798375 ], [ 21.629446643431205, 47.562542235968564 ], [ 21.629649068230929, 47.562725942903761 ], [ 21.629706797683209, 47.562782684351433 ], [ 21.629833843822052, 47.562930876172224 ], [ 21.629973757050294, 47.563117468247604 ], [ 21.630101665590299, 47.563305816605684 ], [ 21.630248292106081, 47.563629898579755 ], [ 21.630361507768363, 47.56394505552386 ], [ 21.630434694827439, 47.56431839566909 ], [ 21.630471240729179, 47.564616667021419 ], [ 21.63047496574637, 47.564912510333514 ], [ 21.630545477572493, 47.565298558195529 ] ] ] } },
{ "type": "Feature", "properties": { "fid": 55, "Line": 7.0, "auxiliary_storage_labeling_show": null }, "geometry": { "type": "MultiLineString", "coordinates": [ [ [ 21.630545477572493, 47.565298558195529 ], [ 21.630542009786119, 47.564818010777245 ], [ 21.630538458636074, 47.564137328697115 ], [ 21.630534214181957, 47.563622574393634 ], [ 21.630545216515099, 47.562632061731215 ], [ 21.630541935541849, 47.561236386932165 ], [ 21.630529671206546, 47.559454031025567 ], [ 21.630528032336798, 47.558497279944532 ], [ 21.63053035472463, 47.558117042436386 ], [ 21.630525893187016, 47.55759782801988 ], [ 21.630511930592085, 47.557131650270875 ], [ 21.630522615859817, 47.556877706125938 ], [ 21.630517081266188, 47.556471604046564 ], [ 21.630530107229703, 47.556220583503958 ], [ 21.630551079653181, 47.556042297543719 ], [ 21.630564850011115, 47.555761500161168 ], [ 21.630561995701658, 47.555590443161748 ], [ 21.630562354844656, 47.555350121925933 ], [ 21.630572734109609, 47.554954823740836 ], [ 21.630569887692186, 47.554423668623748 ], [ 21.630572629725666, 47.553916940547168 ], [ 21.630581532851156, 47.55337882639396 ] ] ] } }
]
}
